[
  {
    "COMMENT": "GENERATED VIA SPACETRACK.ORG API",
    "ORIGINATOR": "18 SPCS",
    "NORAD_CAT_ID": "54754",
    "OBJECT_NAME": "SWOT",
    "OBJECT_TYPE": "PAYLOAD",
    "CLASSIFICATION_TYPE": "U",
    "INTLDES": "22173A",
    "EPOCH": "2023-08-27 09:44:29",
    "EPOCH_MICROSECONDS": "484384",
    "MEAN_MOTION": "14.00167688",
    "ECCENTRICITY": "0.0000284",
    "INCLINATION": "77.6131",
    "RA_OF_ASC_NODE": "338.6575",
    "ARG_OF_PERICENTER": "100.5163",
    "MEAN_ANOMALY": "259.6021",
    "EPHEMERIS_TYPE": "0",
    "ELEMENT_SET_NO": "999",
    "REV_AT_EPOCH": "3573",
    "BSTAR": "-0.000010963",
    "MEAN_MOTION_DOT": "-0.00000019",
    "MEAN_MOTION_DDOT": "0",
    "FILE": "3990390",
    "TLE_LINE0": "0 SWOT",
    "TLE_LINE1": "1 54754U 22173A   23239.40589681 -.00000019  00000-0 -10963-4 0  9995",
    "TLE_LINE2": "2 54754  77.6131 338.6575 0000284 100.5163 259.6021 14.00167688 35733",
    "OBJECT_ID": "2022-173A",
    "OBJECT_NUMBER": "54754",
    "SEMIMAJOR_AXIS": "7271.352",
    "PERIOD": "102.845",
    "APOGEE": "893.423",
    "PERIGEE": "893.010",
    "DECAYED": "0"
  },
  {
    "COMMENT": "GENERATED VIA SPACETRACK.ORG API",
    "ORIGINATOR": "18 SPCS",
    "NORAD_CAT_ID": "54754",
    "OBJECT_NAME": "SWOT",
    "OBJECT_TYPE": "PAYLOAD",
    "CLASSIFICATION_TYPE": "U",
    "INTLDES": "22173A",
    "EPOCH": "2023-08-27 18:18:57",
    "EPOCH_MICROSECONDS": "769632",
    "MEAN_MOTION": "14.00167733",
    "ECCENTRICITY": "0.0000275",
    "INCLINATION": "77.6131",
    "RA_OF_ASC_NODE": "338.1753",
    "ARG_OF_PERICENTER": "100.8961",
    "MEAN_ANOMALY": "259.2222",
    "EPHEMERIS_TYPE": "0",
    "ELEMENT_SET_NO": "999",
    "REV_AT_EPOCH": "3578",
    "BSTAR": "-0.00001737",
    "MEAN_MOTION_DOT": "-0.00000028",
    "MEAN_MOTION_DDOT": "0",
    "FILE": "3990659",
    "TLE_LINE0": "0 SWOT",
    "TLE_LINE1": "1 54754U 22173A   23239.76316863 -.00000028  00000-0 -17370-4 0  9993",
    "TLE_LINE2": "2 54754  77.6131 338.1753 0000275 100.8961 259.2222 14.00167733 35780",
    "OBJECT_ID": "2022-173A",
    "OBJECT_NUMBER": "54754",
    "SEMIMAJOR_AXIS": "7271.351",
    "PERIOD": "102.845",
    "APOGEE": "893.416",
    "PERIGEE": "893.016",
    "DECAYED": "0"
  },
  {
    "COMMENT": "GENERATED VIA SPACETRACK.ORG API",
    "ORIGINATOR": "18 SPCS",
    "NORAD_CAT_ID": "54754",
    "OBJECT_NAME": "SWOT",
    "OBJECT_TYPE": "PAYLOAD",
    "CLASSIFICATION_TYPE": "U",
    "INTLDES": "22173A",
    "EPOCH": "2023-08-27 21:44:45",
    "EPOCH_MICROSECONDS": "83904",
    "MEAN_MOTION": "14.00167743",
    "ECCENTRICITY": "0.0000277",
    "INCLINATION": "77.6131",
    "RA_OF_ASC_NODE": "337.9824",
    "ARG_OF_PERICENTER": "100.8267",
    "MEAN_ANOMALY": "259.2916",
    "EPHEMERIS_TYPE": "0",
    "ELEMENT_SET_NO": "999",
    "REV_AT_EPOCH": "3580",
    "BSTAR": "-0.000021147",
    "MEAN_MOTION_DOT": "-0.00000034",
    "MEAN_MOTION_DDOT": "0",
    "FILE": "3990698",
    "TLE_LINE0": "0 SWOT",
    "TLE_LINE1": "1 54754U 22173A   23239.90607736 -.00000034  00000-0 -21147-4 0  9995",
    "TLE_LINE2": "2 54754  77.6131 337.9824 0000277 100.8267 259.2916 14.00167743 35801",
    "OBJECT_ID": "2022-173A",
    "OBJECT_NUMBER": "54754",
    "SEMIMAJOR_AXIS": "7271.351",
    "PERIOD": "102.845",
    "APOGEE": "893.418",
    "PERIGEE": "893.015",
    "DECAYED": "0"
  },
  {
    "COMMENT": "GENERATED VIA SPACETRACK.ORG API",
    "ORIGINATOR": "18 SPCS",
    "NORAD_CAT_ID": "54754",
    "OBJECT_NAME": "SWOT",
    "OBJECT_TYPE": "PAYLOAD",
    "CLASSIFICATION_TYPE": "U",
    "INTLDES": "22173A",
    "EPOCH": "2023-08-28 18:19:28",
    "EPOCH_MICROSECONDS": "979040",
    "MEAN_MOTION": "14.00167782",
    "ECCENTRICITY": "0.0000268",
    "INCLINATION": "77.613",
    "RA_OF_ASC_NODE": "336.8252",
    "ARG_OF_PERICENTER": "97.4797",
    "MEAN_ANOMALY": "262.6385",
    "EPHEMERIS_TYPE": "0",
    "ELEMENT_SET_NO": "999",
    "REV_AT_EPOCH": "3592",
    "BSTAR": "-0.00003333",
    "MEAN_MOTION_DOT": "-0.00000052",
    "MEAN_MOTION_DDOT": "0",
    "FILE": "3991602",
    "TLE_LINE0": "0 SWOT",
    "TLE_LINE1": "1 54754U 22173A   23240.76352985 -.00000052  00000-0 -33330-4 0  9991",
    "TLE_LINE2": "2 54754  77.6130 336.8252 0000268  97.4797 262.6385 14.00167782 35926",
    "OBJECT_ID": "2022-173A",
    "OBJECT_NUMBER": "54754",
    "SEMIMAJOR_AXIS": "7271.351",
    "PERIOD": "102.845",
    "APOGEE": "893.411",
    "PERIGEE": "893.021",
    "DECAYED": "0"
  },
  {
    "COMMENT": "GENERATED VIA SPACETRACK.ORG API",
    "ORIGINATOR": "18 SPCS",
    "NORAD_CAT_ID": "54754",
    "OBJECT_NAME": "SWOT",
    "OBJECT_TYPE": "PAYLOAD",
    "CLASSIFICATION_TYPE": "U",
    "INTLDES": "22173A",
    "EPOCH": "2023-08-28 20:02:22",
    "EPOCH_MICROSECONDS": "636608",
    "MEAN_MOTION": "14.00167786",
    "ECCENTRICITY": "0.0000268",
    "INCLINATION": "77.613",
    "RA_OF_ASC_NODE": "336.7287",
    "ARG_OF_PERICENTER": "97.3926",
    "MEAN_ANOMALY": "262.7256",
    "EPHEMERIS_TYPE": "0",
    "ELEMENT_SET_NO": "999",
    "REV_AT_EPOCH": "3593",
    "BSTAR": "-0.00003486",
    "MEAN_MOTION_DOT": "-0.00000054",
    "MEAN_MOTION_DDOT": "0",
    "FILE": "3991628",
    "TLE_LINE0": "0 SWOT",
    "TLE_LINE1": "1 54754U 22173A   23240.83498422 -.00000054  00000-0 -34860-4 0  9997",
    "TLE_LINE2": "2 54754  77.6130 336.7287 0000268  97.3926 262.7256 14.00167786 35939",
    "OBJECT_ID": "2022-173A",
    "OBJECT_NUMBER": "54754",
    "SEMIMAJOR_AXIS": "7271.351",
    "PERIOD": "102.845",
    "APOGEE": "893.411",
    "PERIGEE": "893.021",
    "DECAYED": "0"
  },
  {
    "COMMENT": "GENERATED VIA SPACETRACK.ORG API",
    "ORIGINATOR": "18 SPCS",
    "NORAD_CAT_ID": "54754",
    "OBJECT_NAME": "SWOT",
    "OBJECT_TYPE": "PAYLOAD",
    "CLASSIFICATION_TYPE": "U",
    "INTLDES": "22173A",
    "EPOCH": "2023-08-29 18:20:00",
    "EPOCH_MICROSECONDS": "177216",
    "MEAN_MOTION": "14.00168086",
    "ECCENTRICITY": "0.0000248",
    "INCLINATION": "77.613",
    "RA_OF_ASC_NODE": "335.475",
    "ARG_OF_PERICENTER": "94.8705",
    "MEAN_ANOMALY": "265.2475",
    "EPHEMERIS_TYPE": "0",
    "ELEMENT_SET_NO": "999",
    "REV_AT_EPOCH": "3606",
    "BSTAR": "0.0000028624",
    "MEAN_MOTION_DOT": "0.00000002",
    "MEAN_MOTION_DDOT": "0",
    "FILE": "3992394",
    "TLE_LINE0": "0 SWOT",
    "TLE_LINE1": "1 54754U 22173A   23241.76389094  .00000002  00000-0  28624-5 0  9997",
    "TLE_LINE2": "2 54754  77.6130 335.4750 0000248  94.8705 265.2475 14.00168086 36065",
    "OBJECT_ID": "2022-173A",
    "OBJECT_NUMBER": "54754",
    "SEMIMAJOR_AXIS": "7271.350",
    "PERIOD": "102.845",
    "APOGEE": "893.395",
    "PERIGEE": "893.035",
    "DECAYED": "0"
  },
  {
    "COMMENT": "GENERATED VIA SPACETRACK.ORG API",
    "ORIGINATOR": "18 SPCS",
    "NORAD_CAT_ID": "54754",
    "OBJECT_NAME": "SWOT",
    "OBJECT_TYPE": "PAYLOAD",
    "CLASSIFICATION_TYPE": "U",
    "INTLDES": "22173A",
    "EPOCH": "2023-08-29 21:45:47",
    "EPOCH_MICROSECONDS": "492352",
    "MEAN_MOTION": "14.00168096",
    "ECCENTRICITY": "0.0000247",
    "INCLINATION": "77.613",
    "RA_OF_ASC_NODE": "335.2821",
    "ARG_OF_PERICENTER": "94.6648",
    "MEAN_ANOMALY": "265.4532",
    "EPHEMERIS_TYPE": "0",
    "ELEMENT_SET_NO": "999",
    "REV_AT_EPOCH": "3608",
    "BSTAR": "0.0000021847",
    "MEAN_MOTION_DOT": "0.00000001",
    "MEAN_MOTION_DDOT": "0",
    "FILE": "3992439",
    "TLE_LINE0": "0 SWOT",
    "TLE_LINE1": "1 54754U 22173A   23241.90679968  .00000001  00000-0  21847-5 0  9994",
    "TLE_LINE2": "2 54754  77.6130 335.2821 0000247  94.6648 265.4532 14.00168096 36084",
    "OBJECT_ID": "2022-173A",
    "OBJECT_NUMBER": "54754",
    "SEMIMAJOR_AXIS": "7271.350",
    "PERIOD": "102.845",
    "APOGEE": "893.395",
    "PERIGEE": "893.036",
    "DECAYED": "0"
  },
  {
    "COMMENT": "GENERATED VIA SPACETRACK.ORG API",
    "ORIGINATOR": "18 SPCS",
    "NORAD_CAT_ID": "54754",
    "OBJECT_NAME": "SWOT",
    "OBJECT_TYPE": "PAYLOAD",
    "CLASSIFICATION_TYPE": "U",
    "INTLDES": "22173A",
    "EPOCH": "2023-08-30 18:20:31",
    "EPOCH_MICROSECONDS": "390944",
    "MEAN_MOTION": "14.00168217",
    "ECCENTRICITY": "0.0000241",
    "INCLINATION": "77.613",
    "RA_OF_ASC_NODE": "334.1249",
    "ARG_OF_PERICENTER": "92.9749",
    "MEAN_ANOMALY": "267.143",
    "EPHEMERIS_TYPE": "0",
    "ELEMENT_SET_NO": "999",
    "REV_AT_EPOCH": "3620",
    "BSTAR": "0.000016751",
    "MEAN_MOTION_DOT": "0.00000022",
    "MEAN_MOTION_DDOT": "0",
    "FILE": "3993286",
    "TLE_LINE0": "0 SWOT",
    "TLE_LINE1": "1 54754U 22173A   23242.76425221  .00000022  00000-0  16751-4 0  9990",
    "TLE_LINE2": "2 54754  77.6130 334.1249 0000241  92.9749 267.1430 14.00168217 36208",
    "OBJECT_ID": "2022-173A",
    "OBJECT_NUMBER": "54754",
    "SEMIMAJOR_AXIS": "7271.350",
    "PERIOD": "102.845",
    "APOGEE": "893.390",
    "PERIGEE": "893.039",
    "DECAYED": "0"
  },
  {
    "COMMENT": "GENERATED VIA SPACETRACK.ORG API",
    "ORIGINATOR": "18 SPCS",
    "NORAD_CAT_ID": "54754",
    "OBJECT_NAME": "SWOT",
    "OBJECT_TYPE": "PAYLOAD",
    "CLASSIFICATION_TYPE": "U",
    "INTLDES": "22173A",
    "EPOCH": "2023-08-30 20:03:25",
    "EPOCH_MICROSECONDS": "46784",
    "MEAN_MOTION": "14.00168249",
    "ECCENTRICITY": "0.0000242",
    "INCLINATION": "77.613",
    "RA_OF_ASC_NODE": "334.0284",
    "ARG_OF_PERICENTER": "92.6179",
    "MEAN_ANOMALY": "267.5",
    "EPHEMERIS_TYPE": "0",
    "ELEMENT_SET_NO": "999",
    "REV_AT_EPOCH": "3621",
    "BSTAR": "0.00002142",
    "MEAN_MOTION_DOT": "0.00000029",
    "MEAN_MOTION_DDOT": "0",
    "FILE": "3993321",
    "TLE_LINE0": "0 SWOT",
    "TLE_LINE1": "1 54754U 22173A   23242.83570656  .00000029  00000-0  21420-4 0  9997",
    "TLE_LINE2": "2 54754  77.6130 334.0284 0000242  92.6179 267.5000 14.00168249 36214",
    "OBJECT_ID": "2022-173A",
    "OBJECT_NUMBER": "54754",
    "SEMIMAJOR_AXIS": "7271.350",
    "PERIOD": "102.845",
    "APOGEE": "893.391",
    "PERIGEE": "893.039",
    "DECAYED": "0"
  }
]